STARLINK-31629          
1 59255U 24050B   26068.59575197  .00000509  00000+0  29326-4 0  9996
2 59255  53.1601 181.4675 0001154  93.6915 266.4217 15.30181219110539
STRIX-4                 
1 60352U 24137A   26068.65404516  .00020530  00000+0  71820-3 0  9996
2 60352  43.0134 129.8162 0016840   5.2738 354.8289 15.29026223 88766
